{"type": "FeatureCollection", "features": [ {"type": "Feature", "properties": {"norad_id": 66536, "name": "STARLINK-35640", "group": "last-30-days", "lat": -5.761620852865287, "lon": 11.790580908243276, "alt_km": 442.31315804949645, "timestamp": "2025-12-18T21:31:49.697841+00:00", "meta": {"OBJECT_NAME": "STARLINK-35640", "OBJECT_ID": "2025-265W", "EPOCH": "2025-12-18T08:00:01.999872", "MEAN_MOTION": 15.43629897, "ECCENTRICITY": 0.00016208, "INCLINATION": 43.0002, "RA_OF_ASC_NODE": 21.2645, "ARG_OF_PERICENTER": 282.4084, "MEAN_ANOMALY": 175.0727, "EPHEMERIS_TYPE": 0, "CLASSIFICATION_TYPE": "U", "NORAD_CAT_ID": 66536, "ELEMENT_SET_NO": 999, "REV_AT_EPOCH": 587, "BSTAR": -0.04655886, "MEAN_MOTION_DOT": -0.01921752, "MEAN_MOTION_DDOT": 0}, "tle": {"line1": "1 66536U 25265W   25352.33335648 -.01921752  00000+0 -46559-1 0  9996", "line2": "2 66536  43.0002  21.2645 0001620 282.4084 175.0727 15.43629897  5877"}}, "geometry": {"type": "Point", "coordinates": [11.790580908243276, -5.761620852865287]}}, {"type": "Feature", "properties": {"norad_id": 66537, "name": "STARLINK-35582", "group": "last-30-days", "lat": 20.535373150842993, "lon": 41.61053433025234, "alt_km": 416.1219759428377, "timestamp": "2025-12-18T21:31:49.697851+00:00", "meta": {"OBJECT_NAME": "STARLINK-35582", "OBJECT_ID": "2025-265X", "EPOCH": "2025-12-18T02:51:03.621024", "MEAN_MOTION": 15.50922723, "ECCENTRICITY": 0.00089647, "INCLINATION": 42.9966, "RA_OF_ASC_NODE": 22.462, "ARG_OF_PERICENTER": 222.3935, "MEAN_ANOMALY": 137.6234, "EPHEMERIS_TYPE": 0, "CLASSIFICATION_TYPE": "U", "NORAD_CAT_ID": 66537, "ELEMENT_SET_NO": 999, "REV_AT_EPOCH": 459, "BSTAR": 0.0017052486, "MEAN_MOTION_DOT": 0.00102406, "MEAN_MOTION_DDOT": 0}, "tle": {"line1": "1 66537U 25265X   25352.11879191  .00102406  00000+0  17052-2 0  9990", "line2": "2 66537  42.9966  22.4620 0008964 222.3935 137.6234 15.50922723  4594"}}, "geometry": {"type": "Point", "coordinates": [41.61053433025234, 20.535373150842993]}}, {"type": "Feature", "properties": {"norad_id": 66538, "name": "STARLINK-35577", "group": "last-30-days", "lat": 21.013740129821954, "lon": 42.24714118273745, "alt_km": 411.3270372180168, "timestamp": "2025-12-18T21:31:49.697862+00:00", "meta": {"OBJECT_NAME": "STARLINK-35577", "OBJECT_ID": "2025-265Y", "EPOCH": "2025-12-17T09:50:26.132352", "MEAN_MOTION": 15.50591082, "ECCENTRICITY": 0.00013928, "INCLINATION": 43.001, "RA_OF_ASC_NODE": 26.6049, "ARG_OF_PERICENTER": 263.8064, "MEAN_ANOMALY": 96.2638, "EPHEMERIS_TYPE": 0, "CLASSIFICATION_TYPE": "U", "NORAD_CAT_ID": 66538, "ELEMENT_SET_NO": 999, "REV_AT_EPOCH": 448, "BSTAR": 0.0015140009, "MEAN_MOTION_DOT": 0.00089538, "MEAN_MOTION_DDOT": 0}, "tle": {"line1": "1 66538U 25265Y   25351.41002468  .00089538  00000+0  15140-2 0  9994", "line2": "2 66538  43.0010  26.6049 0001392 263.8064  96.2638 15.50591082  4485"}}, "geometry": {"type": "Point", "coordinates": [42.24714118273745, 21.013740129821954]}}, {"type": "Feature", "properties": {"norad_id": 66539, "name": "STARLINK-35697", "group": "last-30-days", "lat": 21.825201398761827, "lon": 43.35560064572213, "alt_km": 411.57545846939956, "timestamp": "2025-12-18T21:31:49.697874+00:00", "meta": {"OBJECT_NAME": "STARLINK-35697", "OBJECT_ID": "2025-265Z", "EPOCH": "2025-12-18T02:50:16.521792", "MEAN_MOTION": 15.50598942, "ECCENTRICITY": 7.542e-05, "INCLINATION": 42.9998, "RA_OF_ASC_NODE": 22.4596, "ARG_OF_PERICENTER": 259.3636, "MEAN_ANOMALY": 100.714, "EPHEMERIS_TYPE": 0, "CLASSIFICATION_TYPE": "U", "NORAD_CAT_ID": 66539, "ELEMENT_SET_NO": 999, "REV_AT_EPOCH": 459, "BSTAR": 0.00097005248, "MEAN_MOTION_DOT": 0.00057022, "MEAN_MOTION_DDOT": 0}, "tle": {"line1": "1 66539U 25265Z   25352.11824678  .00057022  00000+0  97005-3 0  9992", "line2": "2 66539  42.9998  22.4596 0000754 259.3636 100.7140 15.50598942  4599"}}, "geometry": {"type": "Point", "coordinates": [43.35560064572213, 21.825201398761827]}}, {"type": "Feature", "properties": {"norad_id": 66540, "name": "STARLINK-35818", "group": "last-30-days", "lat": 22.997577955332034, "lon": 44.991952735259986, "alt_km": 411.37077068342387, "timestamp": "2025-12-18T21:31:49.697887+00:00", "meta": {"OBJECT_NAME": "STARLINK-35818", "OBJECT_ID": "2025-265AA", "EPOCH": "2025-12-18T02:49:47.888832", "MEAN_MOTION": 15.50609715, "ECCENTRICITY": 0.00014595, "INCLINATION": 42.9995, "RA_OF_ASC_NODE": 22.4559, "ARG_OF_PERICENTER": 275.939, "MEAN_ANOMALY": 84.1304, "EPHEMERIS_TYPE": 0, "CLASSIFICATION_TYPE": "U", "NORAD_CAT_ID": 66540, "ELEMENT_SET_NO": 999, "REV_AT_EPOCH": 459, "BSTAR": 0.001229568, "MEAN_MOTION_DOT": 0.00072542, "MEAN_MOTION_DDOT": 0}, "tle": {"line1": "1 66540U 25265AA  25352.11791538  .00072542  00000+0  12296-2 0  9994", "line2": "2 66540  42.9995  22.4559 0001459 275.9390  84.1304 15.50609715  4599"}}, "geometry": {"type": "Point", "coordinates": [44.991952735259986, 22.997577955332034]}}, {"type": "Feature", "properties": {"norad_id": 66541, "name": "STARLINK-35796", "group": "last-30-days", "lat": -22.970151960310854, "lon": -134.61334421458093, "alt_km": 445.3827866136626, "timestamp": "2025-12-18T21:31:49.697898+00:00", "meta": {"OBJECT_NAME": "STARLINK-35796", "OBJECT_ID": "2025-265AB", "EPOCH": "2025-12-18T03:29:16.899072", "MEAN_MOTION": 15.40721005, "ECCENTRICITY": 0.00011485, "INCLINATION": 43, "RA_OF_ASC_NODE": 22.6644, "ARG_OF_PERICENTER": 243.5508, "MEAN_ANOMALY": 116.523, "EPHEMERIS_TYPE": 0, "CLASSIFICATION_TYPE": "U", "NORAD_CAT_ID": 66541, "ELEMENT_SET_NO": 999, "REV_AT_EPOCH": 459, "BSTAR": 0.00081352399, "MEAN_MOTION_DOT": 0.00033854, "MEAN_MOTION_DDOT": 0}, "tle": {"line1": "1 66541U 25265AB  25352.14533448  .00033854  00000+0  81352-3 0  9995", "line2": "2 66541  43.0000  22.6644 0001148 243.5508 116.5230 15.40721005  4597"}}, "geometry": {"type": "Point", "coordinates": [-134.61334421458093, -22.970151960310854]}}, {"type": "Feature", "properties": {"norad_id": 66542, "name": "STARLINK-35833", "group": "last-30-days", "lat": -42.73214841440277, "lon": -79.32561348269685, "alt_km": 446.7895399845156, "timestamp": "2025-12-18T21:31:49.697909+00:00", "meta": {"OBJECT_NAME": "STARLINK-35833", "OBJECT_ID": "2025-265AC", "EPOCH": "2025-12-18T08:00:01.999872", "MEAN_MOTION": 15.40682961, "ECCENTRICITY": 9.073e-05, "INCLINATION": 43.0006, "RA_OF_ASC_NODE": 21.4652, "ARG_OF_PERICENTER": 264.0216, "MEAN_ANOMALY": 109.9081, "EPHEMERIS_TYPE": 0, "CLASSIFICATION_TYPE": "U", "NORAD_CAT_ID": 66542, "ELEMENT_SET_NO": 999, "REV_AT_EPOCH": 589, "BSTAR": 0.00036967667, "MEAN_MOTION_DOT": 0.00015161, "MEAN_MOTION_DDOT": 0}, "tle": {"line1": "1 66542U 25265AC  25352.33335648  .00015161  00000+0  36968-3 0  9993", "line2": "2 66542  43.0006  21.4652 0000907 264.0216 109.9081 15.40682961  5897"}}, "geometry": {"type": "Point", "coordinates": [-79.32561348269685, -42.73214841440277]}}, {"type": "Feature", "properties": {"norad_id": 66543, "name": "STARLINK-35315", "group": "last-30-days", "lat": -22.0555140876985, "lon": -7.707086698128626, "alt_km": 445.2038464149882, "timestamp": "2025-12-18T21:31:49.697919+00:00", "meta": {"OBJECT_NAME": "STARLINK-35315", "OBJECT_ID": "2025-265AD", "EPOCH": "2025-12-18T08:00:01.999872", "MEAN_MOTION": 15.40686895, "ECCENTRICITY": 0.00016798, "INCLINATION": 42.9998, "RA_OF_ASC_NODE": 21.314, "ARG_OF_PERICENTER": 286.3109, "MEAN_ANOMALY": 149.7794, "EPHEMERIS_TYPE": 0, "CLASSIFICATION_TYPE": "U", "NORAD_CAT_ID": 66543, "ELEMENT_SET_NO": 999, "REV_AT_EPOCH": 578, "BSTAR": 0.00062548072, "MEAN_MOTION_DOT": 0.00025902, "MEAN_MOTION_DDOT": 0}, "tle": {"line1": "1 66543U 25265AD  25352.33335648  .00025902  00000+0  62548-3 0  9991", "line2": "2 66543  42.9998  21.3140 0001679 286.3109 149.7794 15.40686895  5783"}}, "geometry": {"type": "Point", "coordinates": [-7.707086698128626, -22.0555140876985]}}, {"type": "Feature", "properties": {"norad_id": 66544, "name": "STARLINK-35728", "group": "last-30-days", "lat": 27.533797246360553, "lon": 51.89380163883925, "alt_km": 410.76359285792387, "timestamp": "2025-12-18T21:31:49.697929+00:00", "meta": {"OBJECT_NAME": "STARLINK-35728", "OBJECT_ID": "2025-265AE", "EPOCH": "2025-12-18T02:47:48.345792", "MEAN_MOTION": 15.50616267, "ECCENTRICITY": 0.00012891, "INCLINATION": 43.0006, "RA_OF_ASC_NODE": 22.4446, "ARG_OF_PERICENTER": 274.0122, "MEAN_ANOMALY": 86.059, "EPHEMERIS_TYPE": 0, "CLASSIFICATION_TYPE": "U", "NORAD_CAT_ID": 66544, "ELEMENT_SET_NO": 999, "REV_AT_EPOCH": 459, "BSTAR": 0.00099287091, "MEAN_MOTION_DOT": 0.00058419, "MEAN_MOTION_DDOT": 0}, "tle": {"line1": "1 66544U 25265AE  25352.11653178  .00058419  00000+0  99287-3 0  9998", "line2": "2 66544  43.0006  22.4446 0001289 274.0122  86.0590 15.50616267  4595"}}, "geometry": {"type": "Point", "coordinates": [51.89380163883925, 27.533797246360553]}}, {"type": "Feature", "properties": {"norad_id": 66545, "name": "SHIJIAN-30A", "group": "last-30-days", "lat": 31.278028004430833, "lon": -27.405129559407914, "alt_km": 506.94464953945226, "timestamp": "2025-12-18T21:31:49.697940+00:00", "meta": {"OBJECT_NAME": "SHIJIAN-30A", "OBJECT_ID": "2025-266A", "EPOCH": "2025-12-18T07:06:22.449024", "MEAN_MOTION": 15.15573851, "ECCENTRICITY": 0.00130367, "INCLINATION": 51.7996, "RA_OF_ASC_NODE": 306.8318, "ARG_OF_PERICENTER": 16.0872, "MEAN_ANOMALY": 344.0516, "EPHEMERIS_TYPE": 0, "CLASSIFICATION_TYPE": "U", "NORAD_CAT_ID": 66545, "ELEMENT_SET_NO": 999, "REV_AT_EPOCH": 442, "BSTAR": 0.0005610064, "MEAN_MOTION_DOT": 0.00010505, "MEAN_MOTION_DDOT": 0}, "tle": {"line1": "1 66545U 25266A   25352.29609316  .00010505  00000+0  56101-3 0  9996", "line2": "2 66545  51.7996 306.8318 0013036  16.0872 344.0516 15.15573851  4425"}}, "geometry": {"type": "Point", "coordinates": [-27.405129559407914, 31.278028004430833]}}]}